FLOCK 4G-5              
1 62663U 25009BG  26068.45638436  .00011278  00000+0  40688-3 0  9997
2 62663  97.4058 151.2478 0002094 314.5072  45.5996 15.28679529 63699
STARLINK-36434          
1 67322U 26002T   26068.15499568  .00033696  00000+0  12314-2 0  9998
2 67322  43.0012 328.5885 0001160 309.9605  50.1144 15.27498947 10991
